OBJECT_NAME,OBJECT_ID,EPOCH,MEAN_MOTION,ECCENTRICITY,INCLINATION,RA_OF_ASC_NODE,ARG_OF_PERICENTER,MEAN_ANOMALY,EPHEMERIS_TYPE,CLASSIFICATION_TYPE,NORAD_CAT_ID,ELEMENT_SET_NO,REV_AT_EPOCH,BSTAR,MEAN_MOTION_DOT,MEAN_MOTION_DDOT
COSMOS 2058,1990-010A,2026-07-19T07:06:54.292608,15.12170933,.00082557,82.4674,277.6868,232.8073,127.2404,0,U,20465,999,96212,.10991844E-3,.1926E-4,0
SL-14 R/B,1990-010B,2026-07-19T08:06:44.666208,14.83664394,.00186197,82.5038,143.7525,222.6450,137.3321,0,U,20466,999,94800,.2022384E-4,.191E-5,0
SL-14 R/B,1990-018B,2026-07-19T05:06:04.393440,14.82235502,.0016738,82.5215,100.1753,24.2738,335.9261,0,U,20511,999,94206,.21337516E-4,.194E-5,0
HST,1990-037B,2026-07-19T08:18:21.937536,15.31084694,.00021472,28.4721,220.7198,143.8470,216.2271,0,U,20580,999,79350,.89068087E-4,.2982E-4,0
SL-16 R/B,1990-046B,2026-07-19T06:05:51.718848,14.15027329,.00122964,70.9993,21.5983,107.1393,253.1077,0,U,20625,999,86700,.17604306E-3,.294E-5,0
COSMOS 2084,1990-055A,2026-07-19T11:02:53.530656,15.06231688,.00086078,62.7877,245.9273,322.1852,37.8643,0,U,20663,999,95616,.59566047E-4,.674E-5,0
SL-6 R/B(2),1990-055D,2026-07-19T08:39:56.032416,15.04098100,.00457971,62.7808,165.8826,9.5485,350.6474,0,U,20666,999,95799,.86239688E-4,.1017E-4,0
SL-8 R/B,1990-078B,2026-07-19T07:05:28.996800,14.93641465,.03430834,82.9033,132.5987,289.5697,66.8784,0,U,20775,999,82891,.20607913E-3,.7278E-4,0
SL-8 R/B,1991-006B,2026-07-19T09:48:48.383712,13.77509788,.00231928,82.9403,72.0603,29.1548,144.0169,0,U,21088,999,78220,.54520672E-4,.7E-6,0
OKEAN-3,1991-039A,2026-07-19T10:37:46.498656,15.05449006,.00127937,82.5148,209.0984,238.2802,121.7178,0,U,21397,999,88485,.1132489E-3,.1656E-4,0
COSMOS 2151,1991-042A,2026-07-19T14:28:14.265696,15.00520176,.00115477,82.4983,316.3975,340.0870,19.9902,0,U,21422,999,88297,.73458028E-4,.954E-5,0
SL-14 R/B,1991-042B,2026-07-19T05:25:19.827552,14.81919307,.00173378,82.4930,96.8516,163.8145,196.3627,0,U,21423,999,87255,.18445386E-4,.17E-5,0
ERS-1,1991-050A,2026-07-19T11:39:23.241888,14.39535384,.00321943,98.7796,221.9724,169.1563,191.0325,0,U,21574,999,83469,.70892656E-4,.176E-5,0
ARIANE 40 R/B,1991-050F,2026-07-19T08:41:59.821152,14.42973123,.00039641,98.1860,247.5233,52.1638,307.9912,0,U,21610,999,83798,.41022176E-4,.96E-6,0
INTERCOSMOS 25,1991-086A,2026-07-19T11:14:00.154176,12.12242294,.14847885,82.6001,230.2754,192.7057,163.2358,0,U,21819,999,51265,.72794728E-4,.386E-5,0
SL-8 R/B,1992-008B,2026-07-19T10:10:10.340256,13.75984476,.00358722,82.9277,169.8199,125.1324,354.3740,0,U,21876,999,72753,.92631079E-4,.106E-5,0
SL-8 R/B,1992-020B,2026-07-19T08:57:07.964640,13.75549919,.00278264,82.9277,55.9459,291.3570,242.3049,0,U,21938,999,71923,-.23684069E-4,-.8E-7,0
USA 81,1992-023A,2026-07-19T13:09:36.965664,14.32405583,.00017917,85.0048,55.3245,65.2144,294.9235,0,U,21949,999,11366,.21416671E-4,.78E-6,0
COSMOS 2219,1992-076A,2026-07-19T03:55:54.006528,14.14107201,.00184956,71.0609,103.2279,351.5584,8.5224,0,U,22219,999,73696,-.11394083E-3,-.264E-5,0
SL-16 R/B,1992-076B,2026-07-19T12:17:30.292224,14.16877957,.00150425,71.0000,270.6879,256.7193,198.7956,0,U,22220,999,74050,-.36195796E-4,-.121E-5,0
COSMOS 2221,1992-080A,2026-07-19T08:47:08.403072,14.96610397,.00158961,82.5049,152.9346,107.4674,252.8288,0,U,22236,999,80048,.69363021E-4,.818E-5,0
SL-16 R/B,1992-093B,2026-07-19T02:44:38.284800,14.15464245,.00021747,71.0214,88.3682,123.1560,236.9772,0,U,22285,999,73175,-.10804496E-3,-.259E-5,0
COSMOS 2228,1992-094A,2026-07-19T13:25:00.316416,14.97682560,.00166377,82.5186,111.0354,213.4315,146.5859,0,U,22286,999,79579,.68616447E-4,.832E-5,0
SL-16 R/B,1993-016B,2026-07-19T12:31:28.139808,14.15315200,.00086368,71.0087,298.2934,130.2881,229.8998,0,U,22566,999,72082,.17374095E-3,.291E-5,0
COSMOS 2242,1993-024A,2026-07-19T07:59:16.522368,14.96991522,.00149172,82.5200,140.7885,217.5580,142.4602,0,U,22626,999,80008,.69879786E-4,.832E-5,0
SL-16 R/B,1993-059B,2026-07-19T02:38:12.323040,14.17249697,.00168789,70.9901,93.9855,2.7334,357.3879,0,U,22803,999,69815,.86295677E-4,.126E-5,0
ARIANE 40 R/B,1993-061H,2026-07-19T14:31:58.630080,14.32919481,.00095661,98.4802,266.7866,251.0898,108.9249,0,U,22830,999,71299,.34721216E-4,.52E-6,0
COSMOS 2278,1994-023A,2026-07-19T13:36:49.103136,14.14394321,.00093988,71.0517,259.1785,199.0165,161.0608,0,U,23087,999,66345,.10504823E-3,.154E-5,0
SL-16 R/B,1994-023B,2026-07-19T06:31:20.283456,14.15026487,.000131,70.9991,154.5506,112.2032,247.9229,0,U,23088,999,66470,.17443953E-3,.29E-5,0
SL-16 R/B,1994-074B,2026-07-19T13:28:12.183168,14.79526292,.00074686,97.6985,225.9319,141.5354,18.8694,0,U,23343,999,70674,.27525076E-4,.157E-5,0
