COSMOS 2058             
1 20465U 90010A   26200.29646172  .00001926  00000+0  10992-3 0  9995
2 20465  82.4674 277.6868 0008255 232.8073 127.2404 15.12170933962121
SL-14 R/B               
1 20466U 90010B   26200.33801697  .00000191  00000+0  20224-4 0  9999
2 20466  82.5038 143.7525 0018619 222.6450 137.3321 14.83664394948008
SL-14 R/B               
1 20511U 90018B   26200.21255085  .00000194  00000+0  21338-4 0  9999
2 20511  82.5215 100.1753 0016738  24.2738 335.9261 14.82235502942064
HST                     
1 20580U 90037B   26200.34608724  .00002982  00000+0  89068-4 0  9993
2 20580  28.4721 220.7198 0002147 143.8470 216.2271 15.31084694793507
SL-16 R/B               
1 20625U 90046B   26200.25407082  .00000294  00000+0  17604-3 0  9997
2 20625  70.9993  21.5983 0012296 107.1393 253.1077 14.15027329867006
COSMOS 2084             
1 20663U 90055A   26200.46034179  .00000674  00000+0  59566-4 0  9991
2 20663  62.7877 245.9273 0008607 322.1852  37.8643 15.06231688956160
SL-6 R/B(2)             
1 20666U 90055D   26200.36106519  .00001017  00000+0  86240-4 0  9992
2 20666  62.7808 165.8826 0045797   9.5485 350.6474 15.04098100957998
SL-8 R/B                
1 20775U 90078B   26200.29547450  .00007278  00000+0  20608-3 0  9993
2 20775  82.9033 132.5987 0343083 289.5697  66.8784 14.93641465828910
SL-8 R/B                
1 21088U 91006B   26200.40889333  .00000070  00000+0  54521-4 0  9990
2 21088  82.9403  72.0603 0023192  29.1548 144.0169 13.77509788782200
OKEAN-3                 
1 21397U 91039A   26200.44289929  .00001656  00000+0  11325-3 0  9993
2 21397  82.5148 209.0984 0012793 238.2802 121.7178 15.05449006884855
COSMOS 2151             
1 21422U 91042A   26200.60294289  .00000954  00000+0  73458-4 0  9995
2 21422  82.4983 316.3975 0011547 340.0870  19.9902 15.00520176882972
SL-14 R/B               
1 21423U 91042B   26200.22592393  .00000170  00000+0  18445-4 0  9996
2 21423  82.4930  96.8516 0017337 163.8145 196.3627 14.81919307872558
ERS-1                   
1 21574U 91050A   26200.48568567  .00000176  00000+0  70893-4 0  9997
2 21574  98.7796 221.9724 0032194 169.1563 191.0325 14.39535384834690
ARIANE 40 R/B           
1 21610U 91050F   26200.36249793  .00000096  00000+0  41022-4 0  9995
2 21610  98.1860 247.5233 0003964  52.1638 307.9912 14.42973123837989
INTERCOSMOS 25          
1 21819U 91086A   26200.46805734  .00000386  00000+0  72795-4 0  9992
2 21819  82.6001 230.2754 1484788 192.7057 163.2358 12.12242294512650
SL-8 R/B                
1 21876U 92008B   26200.42373079  .00000106  00000+0  92631-4 0  9999
2 21876  82.9277 169.8199 0035872 125.1324 354.3740 13.75984476727531
SL-8 R/B                
1 21938U 92020B   26200.37300885 -.00000008  00000+0 -23684-4 0  9996
2 21938  82.9277  55.9459 0027826 291.3570 242.3049 13.75549919719238
USA 81                  
1 21949U 92023A   26200.54834451  .00000078  00000+0  21417-4 0  9998
2 21949  85.0048  55.3245 0001791  65.2144 294.9235 14.32405583113662
COSMOS 2219             
1 22219U 92076A   26200.16381952 -.00000264  00000+0 -11394-3 0  9999
2 22219  71.0609 103.2279 0018495 351.5584   8.5224 14.14107201736966
SL-16 R/B               
1 22220U 92076B   26200.51215616 -.00000121  00000+0 -36196-4 0  9993
2 22220  71.0000 270.6879 0015042 256.7193 198.7956 14.16877957740508
COSMOS 2221             
1 22236U 92080A   26200.36606948  .00000818  00000+0  69363-4 0  9993
2 22236  82.5049 152.9346 0015896 107.4674 252.8288 14.96610397800484
SL-16 R/B               
1 22285U 92093B   26200.11433200 -.00000259  00000+0 -10804-3 0  9999
2 22285  71.0214  88.3682 0002174 123.1560 236.9772 14.15464245731758
COSMOS 2228             
1 22286U 92094A   26200.55903144  .00000832  00000+0  68616-4 0  9998
2 22286  82.5186 111.0354 0016637 213.4315 146.5859 14.97682560795792
SL-16 R/B               
1 22566U 93016B   26200.52185347  .00000291  00000+0  17374-3 0  9991
2 22566  71.0087 298.2934 0008636 130.2881 229.8998 14.15315200720827
COSMOS 2242             
1 22626U 93024A   26200.33283012  .00000832  00000+0  69880-4 0  9995
2 22626  82.5200 140.7885 0014917 217.5580 142.4602 14.96991522800083
SL-16 R/B               
1 22803U 93059B   26200.10986485  .00000126  00000+0  86296-4 0  9995
2 22803  70.9901  93.9855 0016878   2.7334 357.3879 14.17249697698152
ARIANE 40 R/B           
1 22830U 93061H   26200.60553970  .00000052  00000+0  34721-4 0  9996
2 22830  98.4802 266.7866 0009566 251.0898 108.9249 14.32919481712991
COSMOS 2278             
1 23087U 94023A   26200.56723499  .00000154  00000+0  10505-3 0  9996
2 23087  71.0517 259.1785 0009398 199.0165 161.0608 14.14394321663458
SL-16 R/B               
1 23088U 94023B   26200.27176254  .00000290  00000+0  17444-3 0  9996
2 23088  70.9991 154.5506 0001310 112.2032 247.9229 14.15026487664706
SL-16 R/B               
1 23343U 94074B   26200.56125212  .00000157  00000+0  27525-4 0  9990
2 23343  97.6985 225.9319 0007468 141.5354  18.8694 14.79526292706747
